QIANFAN-60              
1 62790U 25016F   25273.45632892  .00000063  00000+0  77135-4 0  9991
2 62790  88.9732 110.6637 0014892 189.3455 170.7422 13.52524324 37336
QIANFAN-61              
1 62791U 25016G   25289.93124279  .00000098  00000+0  13292-3 0  9998
2 62791  88.9786 109.0803 0015713 141.8652 218.3614 13.50974701 39574
QIANFAN-62              
1 62792U 25016H   25289.93549316  .00000089  00000+0  11935-3 0  9994
2 62792  88.9733 108.9790 0017082 142.6561 217.5781 13.50968601 39566
QIANFAN-63              
1 62793U 25016J   25289.96007774  .00000081  00000+0  10607-3 0  9992
2 62793  88.9741 108.9242 0016992 147.6215 212.5983 13.50971652 39602
QIANFAN-64              
1 62794U 25016K   25289.92714985  .00000089  00000+0  11884-3 0  9994
2 62794  88.9726 108.9094 0015115 140.4056 219.8202 13.50973244 39592
QIANFAN-65              
1 62795U 25016L   25289.92305939  .00000072  00000+0  92488-4 0  9992
2 62795  88.9723 108.9379 0014907 141.9973 218.2233 13.50972178 39578
QIANFAN-66              
1 62796U 25016M   25284.76742828  .00000126  00000+0  17597-3 0  9999
2 62796  88.9747 109.4302 0015725 152.1511 208.0485 13.50966984 38920
QIANFAN-67              
1 62797U 25016N   25289.95596182  .00000090  00000+0  12027-3 0  9999
2 62797  88.9733 108.9246 0015928 144.6036 215.6175 13.50969044 39594
QIANFAN-68              
1 62798U 25016P   25289.94775667  .00000081  00000+0  10698-3 0  9998
2 62798  88.9736 108.9686 0016031 142.9941 217.2319 13.50971352 39579
QIANFAN-69              
1 62799U 25016Q   25289.96425229  .00000085  00000+0  11282-3 0  9991
2 62799  88.9716 108.8484 0016747 144.1823 216.0455 13.50968822 39611
QIANFAN-70              
1 62800U 25016R   25286.57358218 -.00000167  00000+0 -27734-3 0  9993
2 62800  88.9740 109.3259 0016256 144.3136 215.9105 13.50972411 39115
QIANFAN-71              
1 62801U 25016S   25289.90248647  .00000092  00000+0  12375-3 0  9998
2 62801  88.9730 108.9643 0016570 147.6438 212.5733 13.50972522 39569
QIANFAN-72              
1 62802U 25016T   25274.29087208  .00000084  00000+0  11481-3 0  9997
2 62802  88.9730 110.6012 0018440 200.3911 159.6505 13.49486897 37447
QIANFAN-73              
1 63159U 25046A   25289.94579459  .00000158  00000+0  22700-3 0  9996
2 63159  88.9789 325.9034 0012920 290.2785  69.6977 13.50970142 39747
QIANFAN-74              
1 63160U 25046B   25289.92933038  .00000146  00000+0  20685-3 0  9990
2 63160  88.9791 325.7935 0002174  99.0184 261.1213 13.50972033 39808
QIANFAN-75              
1 63161U 25046C   25289.91691279  .00000193  00000+0  28071-3 0  9997
2 63161  88.9792 326.0275 0014050 293.6278  66.3398 13.50979820 39678
QIANFAN-76              
1 63162U 25046D   25289.98694272  .00000072  00000+0  92408-4 0  9993
2 63162  88.9793 326.0013 0011608 294.6109  65.3833 13.50972062 39696
QIANFAN-77              
1 63163U 25046E   25289.92012022  .00000356  00000+0  24970-3 0  9998
2 63163  88.9788 324.4817 0012599 255.0871 104.8911 13.96072015 40521
QIANFAN-78              
1 63164U 25046F   25289.95405036  .00000160  00000+0  22944-3 0  9995
2 63164  88.9791 325.8692 0013026 297.0305  62.9516 13.50972512 39766
QIANFAN-79              
1 63165U 25046G   25289.90866661  .00000151  00000+0  21558-3 0  9996
2 63165  88.9794 325.9792 0012697 295.2315  64.7519 13.50971602 39702
QIANFAN-80              
1 63166U 25046H   25289.92523897  .00000186  00000+0  26964-3 0  9994
2 63166  88.9792 325.6858 0011727 300.6132  59.3863 13.50972451 39864
QIANFAN-81              
1 63167U 25046J   25289.97846446  .00000207  00000+0  30260-3 0  9996
2 63167  88.9791 325.7487 0012618 286.5408  73.4357 13.50987107 39826
QIANFAN-82              
1 63168U 25046K   25289.93757747  .00000163  00000+0  23470-3 0  9994
2 63168  88.9792 325.7965 0010830 296.4021  63.6018 13.50969392 39803
QIANFAN-83              
1 63169U 25046L   25289.98210093  .00000190  00000+0  23122-3 0  9992
2 63169  88.9791 325.6797 0011970 282.2868  77.6949 13.61963851 39874
QIANFAN-84              
1 63170U 25046M   25289.96590637  .00000122  00000+0  17063-3 0  9999
2 63170  88.9792 325.9266 0013756 291.4349  68.5334 13.50986680 39736
QIANFAN-85              
1 63171U 25046N   25289.96226809  .00000187  00000+0  27141-3 0  9996
2 63171  88.9791 325.7989 0011158 294.9357  65.0634 13.50972406 39801
QIANFAN-86              
1 63172U 25046P   25289.97051963  .00000188  00000+0  27239-3 0  9994
2 63172  88.9792 325.6587 0009112 300.8525  59.1729 13.50969354 39882
QIANFAN-87              
1 63173U 25046Q   25282.68330257  .00000145  00000+0  20656-3 0  9991
2 63173  88.9804 326.5243 0010016 319.1660  40.8739 13.50979787 38837
QIANFAN-88              
1 63174U 25046R   25283.51451471  .00000149  00000+0  21299-3 0  9995
2 63174  88.9800 326.3915 0010557 325.4993  34.5472 13.50973338 38972
QIANFAN-89              
1 63175U 25046S   25289.92097351  .00000180  00000+0  26087-3 0  9995
2 63175  88.9793 325.9199 0014434 292.0328  67.9289 13.50970557 39733
QIANFAN-90              
1 63176U 25046T   25289.94970788  .00000156  00000+0  22370-3 0  9996
2 63176  88.9793 325.8892 0011345 290.3045  69.6886 13.50972263 39758
